[{"OBJECT_NAME":"COSMOS 2600","OBJECT_ID":"2026-023A","EPOCH":"2026-03-05T14:31:49.899360","MEAN_MOTION":15.83358354,"ECCENTRICITY":0.00022001,"INCLINATION":96.6429,"RA_OF_ASC_NODE":140.3783,"ARG_OF_PERICENTER":353.4176,"MEAN_ANOMALY":6.7066,"EPHEMERIS_TYPE":0,"CLASSIFICATION_TYPE":"U","NORAD_CAT_ID":67674,"ELEMENT_SET_NO":999,"REV_AT_EPOCH":440,"BSTAR":0.00037077614,"MEAN_MOTION_DOT":0.00080477,"MEAN_MOTION_DDOT":0},{"OBJECT_NAME":"2026-023B","OBJECT_ID":"2026-023B","EPOCH":"2026-03-04T09:33:11.899296","MEAN_MOTION":15.22849981,"ECCENTRICITY":0.00192324,"INCLINATION":96.6368,"RA_OF_ASC_NODE":136.9588,"ARG_OF_PERICENTER":149.866,"MEAN_ANOMALY":210.369,"EPHEMERIS_TYPE":0,"CLASSIFICATION_TYPE":"U","NORAD_CAT_ID":67675,"ELEMENT_SET_NO":999,"REV_AT_EPOCH":405,"BSTAR":0.00075835034,"MEAN_MOTION_DOT":0.00017809,"MEAN_MOTION_DDOT":0},{"OBJECT_NAME":"2026-023C","OBJECT_ID":"2026-023C","EPOCH":"2026-03-05T10:45:07.274304","MEAN_MOTION":15.22987192,"ECCENTRICITY":0.002039,"INCLINATION":96.6398,"RA_OF_ASC_NODE":137.9108,"ARG_OF_PERICENTER":136.8025,"MEAN_ANOMALY":223.4817,"EPHEMERIS_TYPE":0,"CLASSIFICATION_TYPE":"U","NORAD_CAT_ID":67676,"ELEMENT_SET_NO":999,"REV_AT_EPOCH":437,"BSTAR":0.00066101564,"MEAN_MOTION_DOT":0.00015585,"MEAN_MOTION_DDOT":0},{"OBJECT_NAME":"2026-023D","OBJECT_ID":"2026-023D","EPOCH":"2026-03-05T15:32:44.843136","MEAN_MOTION":15.22804184,"ECCENTRICITY":0.00205809,"INCLINATION":96.6429,"RA_OF_ASC_NODE":138.0742,"ARG_OF_PERICENTER":140.9303,"MEAN_ANOMALY":219.3427,"EPHEMERIS_TYPE":0,"CLASSIFICATION_TYPE":"U","NORAD_CAT_ID":67677,"ELEMENT_SET_NO":999,"REV_AT_EPOCH":423,"BSTAR":0.00055496437,"MEAN_MOTION_DOT":0.00013001,"MEAN_MOTION_DDOT":0},{"OBJECT_NAME":"2026-023E","OBJECT_ID":"2026-023E","EPOCH":"2026-03-05T15:29:36.728736","MEAN_MOTION":15.22979326,"ECCENTRICITY":0.00203499,"INCLINATION":96.6322,"RA_OF_ASC_NODE":138.0535,"ARG_OF_PERICENTER":140.4349,"MEAN_ANOMALY":219.838,"EPHEMERIS_TYPE":0,"CLASSIFICATION_TYPE":"U","NORAD_CAT_ID":67678,"ELEMENT_SET_NO":999,"REV_AT_EPOCH":423,"BSTAR":0.00062956874,"MEAN_MOTION_DOT":0.00014835,"MEAN_MOTION_DDOT":0},{"OBJECT_NAME":"2026-023F","OBJECT_ID":"2026-023F","EPOCH":"2026-03-05T17:00:26.828640","MEAN_MOTION":15.23133133,"ECCENTRICITY":0.0022173,"INCLINATION":96.633,"RA_OF_ASC_NODE":140.6121,"ARG_OF_PERICENTER":135.172,"MEAN_ANOMALY":225.1315,"EPHEMERIS_TYPE":0,"CLASSIFICATION_TYPE":"U","NORAD_CAT_ID":67679,"ELEMENT_SET_NO":999,"REV_AT_EPOCH":423,"BSTAR":0.00063201,"MEAN_MOTION_DOT":0.00014977,"MEAN_MOTION_DDOT":0},{"OBJECT_NAME":"2026-023G","OBJECT_ID":"2026-023G","EPOCH":"2026-03-05T15:26:53.867328","MEAN_MOTION":15.23091833,"ECCENTRICITY":0.00236728,"INCLINATION":96.6257,"RA_OF_ASC_NODE":140.5351,"ARG_OF_PERICENTER":131.9538,"MEAN_ANOMALY":228.3724,"EPHEMERIS_TYPE":0,"CLASSIFICATION_TYPE":"U","NORAD_CAT_ID":67680,"ELEMENT_SET_NO":999,"REV_AT_EPOCH":422,"BSTAR":0.00064609266,"MEAN_MOTION_DOT":0.00015309,"MEAN_MOTION_DDOT":0},{"OBJECT_NAME":"2026-023H","OBJECT_ID":"2026-023H","EPOCH":"2026-03-05T15:27:08.270208","MEAN_MOTION":15.23018423,"ECCENTRICITY":0.0023775,"INCLINATION":96.6402,"RA_OF_ASC_NODE":140.5681,"ARG_OF_PERICENTER":131.3107,"MEAN_ANOMALY":229.0183,"EPHEMERIS_TYPE":0,"CLASSIFICATION_TYPE":"U","NORAD_CAT_ID":67681,"ELEMENT_SET_NO":999,"REV_AT_EPOCH":422,"BSTAR":0.00056980465,"MEAN_MOTION_DOT":0.00013463,"MEAN_MOTION_DDOT":0},{"OBJECT_NAME":"2026-023J","OBJECT_ID":"2026-023J","EPOCH":"2026-03-05T15:25:22.430208","MEAN_MOTION":15.23123521,"ECCENTRICITY":0.00238712,"INCLINATION":96.6357,"RA_OF_ASC_NODE":140.5719,"ARG_OF_PERICENTER":128.1639,"MEAN_ANOMALY":232.1756,"EPHEMERIS_TYPE":0,"CLASSIFICATION_TYPE":"U","NORAD_CAT_ID":67682,"ELEMENT_SET_NO":999,"REV_AT_EPOCH":422,"BSTAR":0.00060556662,"MEAN_MOTION_DOT":0.00014359,"MEAN_MOTION_DDOT":0},{"OBJECT_NAME":"ISS OBJECT XZ","OBJECT_ID":"1998-067XZ","EPOCH":"2026-03-04T07:37:01.846272","MEAN_MOTION":15.5133766,"ECCENTRICITY":0.00094914,"INCLINATION":51.6304,"RA_OF_ASC_NODE":98.5346,"ARG_OF_PERICENTER":167.7937,"MEAN_ANOMALY":192.3284,"EPHEMERIS_TYPE":0,"CLASSIFICATION_TYPE":"U","NORAD_CAT_ID":67683,"ELEMENT_SET_NO":999,"REV_AT_EPOCH":395,"BSTAR":0.00087420501,"MEAN_MOTION_DOT":0.00052289,"MEAN_MOTION_DDOT":0},{"OBJECT_NAME":"GXIBA-1","OBJECT_ID":"1998-067YA","EPOCH":"2026-03-05T10:56:24.455040","MEAN_MOTION":15.53561731,"ECCENTRICITY":0.00109702,"INCLINATION":51.6299,"RA_OF_ASC_NODE":92.6362,"ARG_OF_PERICENTER":161.6042,"MEAN_ANOMALY":198.5348,"EPHEMERIS_TYPE":0,"CLASSIFICATION_TYPE":"U","NORAD_CAT_ID":67684,"ELEMENT_SET_NO":999,"REV_AT_EPOCH":413,"BSTAR":0.001230937,"MEAN_MOTION_DOT":0.00080338,"MEAN_MOTION_DDOT":0},{"OBJECT_NAME":"CORAL","OBJECT_ID":"1998-067YB","EPOCH":"2026-03-05T08:16:08.339808","MEAN_MOTION":15.51741434,"ECCENTRICITY":0.00113259,"INCLINATION":51.6309,"RA_OF_ASC_NODE":93.3938,"ARG_OF_PERICENTER":167.4976,"MEAN_ANOMALY":192.6297,"EPHEMERIS_TYPE":0,"CLASSIFICATION_TYPE":"U","NORAD_CAT_ID":67685,"ELEMENT_SET_NO":999,"REV_AT_EPOCH":411,"BSTAR":0.00077286009,"MEAN_MOTION_DOT":0.00046853,"MEAN_MOTION_DDOT":0},{"OBJECT_NAME":"ISS OBJECT YC","OBJECT_ID":"1998-067YC","EPOCH":"2026-03-05T01:59:19.055616","MEAN_MOTION":15.52157473,"ECCENTRICITY":0.00077438,"INCLINATION":51.6311,"RA_OF_ASC_NODE":94.6478,"ARG_OF_PERICENTER":134.4449,"MEAN_ANOMALY":225.7176,"EPHEMERIS_TYPE":0,"CLASSIFICATION_TYPE":"U","NORAD_CAT_ID":67686,"ELEMENT_SET_NO":999,"REV_AT_EPOCH":407,"BSTAR":0.00090337252,"MEAN_MOTION_DOT":0.00055661,"MEAN_MOTION_DDOT":0},{"OBJECT_NAME":"LEOPARD","OBJECT_ID":"1998-067YD","EPOCH":"2026-03-05T11:23:58.081056","MEAN_MOTION":15.51598294,"ECCENTRICITY":0.00077829,"INCLINATION":51.6307,"RA_OF_ASC_NODE":92.7649,"ARG_OF_PERICENTER":140.1506,"MEAN_ANOMALY":220.0056,"EPHEMERIS_TYPE":0,"CLASSIFICATION_TYPE":"U","NORAD_CAT_ID":67687,"ELEMENT_SET_NO":999,"REV_AT_EPOCH":405,"BSTAR":0.00077252404,"MEAN_MOTION_DOT":0.00046527,"MEAN_MOTION_DDOT":0},{"OBJECT_NAME":"ISS OBJECT YE","OBJECT_ID":"1998-067YE","EPOCH":"2026-03-04T12:07:23.752992","MEAN_MOTION":15.51890022,"ECCENTRICITY":0.00077863,"INCLINATION":51.6315,"RA_OF_ASC_NODE":97.5383,"ARG_OF_PERICENTER":134.731,"MEAN_ANOMALY":225.4314,"EPHEMERIS_TYPE":0,"CLASSIFICATION_TYPE":"U","NORAD_CAT_ID":67688,"ELEMENT_SET_NO":999,"REV_AT_EPOCH":390,"BSTAR":0.0010599088,"MEAN_MOTION_DOT":0.00064836,"MEAN_MOTION_DDOT":0}]
